OBJECT_NAME,OBJECT_ID,EPOCH,MEAN_MOTION,ECCENTRICITY,INCLINATION,RA_OF_ASC_NODE,ARG_OF_PERICENTER,MEAN_ANOMALY,EPHEMERIS_TYPE,CLASSIFICATION_TYPE,NORAD_CAT_ID,ELEMENT_SET_NO,REV_AT_EPOCH,BSTAR,MEAN_MOTION_DOT,MEAN_MOTION_DDOT
STARLINK-30985,2023-186W,2026-04-26T10:52:20.532288,15.27576631,.0001367,43.0008,153.6743,267.2495,92.8201,0,U,58493,999,13319,.29826E-4,.559E-5,0
STARLINK-30981,2023-186X,2026-04-26T10:46:47.754912,15.27569377,.0001311,43.0006,153.6429,272.2010,87.8691,0,U,58494,999,13319,.13028E-4,.96E-6,0
STARLINK-31002,2023-186Y,2026-04-25T04:21:02.016576,15.27593821,.000123,43.0038,161.3203,268.1867,91.8844,0,U,58495,999,13316,.4051487E-5,-.151E-5,0
XINGCHI-1 02A,2023-187A,2026-04-26T11:53:47.726592,14.84115597,.0010501,97.9257,199.6765,318.8263,41.2158,0,U,58496,999,12945,.20177E-3,.1631E-4,0
MISRSAT-2,2023-187B,2026-04-26T12:22:49.122912,14.83116450,.0009871,97.9266,198.8526,320.6801,39.3695,0,U,58497,999,12938,.16525E-3,.1294E-4,0
XINGCHI-1 02B,2023-187C,2026-04-26T11:51:48.144672,14.85659141,.0009493,97.9291,200.7635,314.9259,45.1184,0,U,58498,999,12950,.19413E-3,.1628E-4,0
DOORY-SAT,2023-188A,2026-04-26T13:21:00.051840,14.80498036,.0007957,46.9804,187.5696,158.5515,201.5714,0,U,58500,999,12934,.17353E-3,.1138E-4,0
2023-189A,2023-189A,2026-04-26T13:16:26.435136,15.32865993,.0013046,97.4410,134.4778,85.3857,274.8875,0,U,58502,999,13330,.16721E-3,.524E-4,0
2023-189B,2023-189B,2026-04-26T12:17:33.356832,15.85318999,.0001313,97.3996,152.6635,89.4023,270.7398,0,U,58503,999,13456,.91576E-3,.221853E-2,0
CHUANGXIN 19 (CX-19),2023-190A,2026-04-26T13:29:55.176288,13.39548159,.0001406,86.5066,350.4475,89.8024,270.3280,0,U,58505,999,11778,.10525E-3,.72E-6,0
STARLINK-31026,2023-191A,2026-04-26T06:06:51.328800,15.27581606,.0000777,42.9962,201.8015,135.7166,224.3748,0,U,58508,999,13266,-.27431E-4,-.1017E-4,0
STARLINK-31020,2023-191B,2026-04-26T12:06:50.342112,15.27575293,.0000644,43.0016,200.2401,183.2921,176.7926,0,U,58509,999,13270,.76216E-4,.1836E-4,0
STARLINK-30989,2023-191C,2026-04-26T12:32:18.144672,15.27570102,.0000907,43.0069,193.5656,275.5138,84.5610,0,U,58510,999,13281,.83215E-4,.2028E-4,0
STARLINK-30968,2023-191D,2026-04-26T06:21:13.891104,15.27578653,.0000509,43.0027,195.0702,305.9963,54.0842,0,U,58511,999,13274,.50443E-5,-.123E-5,0
STARLINK-30982,2023-191E,2026-04-26T06:26:47.150592,15.27577652,.0000588,43.0034,195.0948,274.7557,85.3228,0,U,58512,999,13274,.11351E-4,.51E-6,0
STARLINK-30998,2023-191F,2026-04-26T06:30:28.832256,15.27587965,.0001611,43.0045,195.1224,269.1554,90.9113,0,U,58513,999,13277,.9747E-4,.2421E-4,0
STARLINK-30983,2023-191G,2026-04-26T12:06:24.618240,15.27579467,.0000848,43.0014,193.4277,281.6820,78.3936,0,U,58514,999,13243,-.65537E-4,-.2065E-4,0
STARLINK-31017,2023-191H,2026-04-26T06:07:39.481248,15.27580391,.000061,43.0008,322.5373,307.9629,52.1167,0,U,58515,999,13545,.60817E-4,.1412E-4,0
STARLINK-31028,2023-191J,2026-04-26T11:25:41.722176,15.27572761,.0001006,42.9960,193.2037,212.1395,147.9396,0,U,58516,999,13278,.70659E-5,-.67E-6,0
STARLINK-31011,2023-191K,2026-04-26T06:37:41.159712,15.27575125,.0001078,43.0024,194.2946,247.0187,113.0551,0,U,58517,999,13275,.75181E-5,-.55E-6,0
STARLINK-31021,2023-191L,2026-04-26T12:26:44.770272,15.27575853,.0001563,43.0028,193.5165,290.1352,69.9331,0,U,58518,999,13278,.39797E-4,.833E-5,0
STARLINK-31010,2023-191M,2026-04-25T12:48:49.460256,15.27609585,.00013648,43.0026,198.9906,288.4456,71.6247,0,U,58519,999,13263,.14944696E-3,.3856E-4,0
STARLINK-31003,2023-191N,2026-04-26T06:35:50.102016,15.27572736,.0000877,43.0029,194.2828,239.9272,120.1492,0,U,58520,999,13275,.36944E-4,.755E-5,0
STARLINK-31015,2023-191P,2026-04-26T11:23:51.024768,15.27569090,.0001354,43.0003,193.2065,244.8615,115.2096,0,U,58521,999,13275,.39733E-3,.10684E-3,0
STARLINK-30932,2023-191R,2026-04-25T13:36:44.822880,15.27623440,.00011637,43.0010,198.4322,287.0738,72.9986,0,U,58523,999,13259,-.23291146E-3,-.6674E-4,0
STARLINK-30992,2023-191S,2026-04-26T11:40:31.564416,15.27566044,.0000716,43.0001,193.2917,250.9689,109.1085,0,U,58524,999,13278,-.34585E-4,-.1213E-4,0
STARLINK-30948,2023-191T,2026-04-26T11:44:12.186816,15.27576440,.0001216,42.9988,193.3112,271.5951,88.4761,0,U,58525,999,13278,.13967E-4,.122E-5,0
STARLINK-31013,2023-191U,2026-04-26T05:37:22.672416,15.07895133,.0004949,42.9988,205.0579,355.3286,4.7511,0,U,58526,999,13262,.12475E-2,.19307E-3,0
STARLINK-31001,2023-191V,2026-04-26T12:11:55.893120,15.27576850,.0000342,42.9943,193.3615,215.1554,144.9275,0,U,58527,999,13278,.84809E-4,.2073E-4,0
STARLINK-31004,2023-191W,2026-04-26T11:49:44.906304,15.27574771,.0001148,42.9971,193.3349,260.8383,99.2339,0,U,58528,999,13278,-.16756E-4,-.723E-5,0
