STARLINK-30985          
1 58493U 23186W   26116.45301542  .00000559  00000+0  29826-4 0  9998
2 58493  43.0008 153.6743 0001367 267.2495  92.8201 15.27576631133199
STARLINK-30981          
1 58494U 23186X   26116.44916383  .00000096  00000+0  13028-4 0  9996
2 58494  43.0006 153.6429 0001311 272.2010  87.8691 15.27569377133193
STARLINK-31002          
1 58495U 23186Y   26115.18127334 -.00000151  00000+0  40515-5 0  9992
2 58495  43.0038 161.3203 0001230 268.1867  91.8844 15.27593821133162
XINGCHI-1 02A           
1 58496U 23187A   26116.49569128  .00001631  00000+0  20177-3 0  9993
2 58496  97.9257 199.6765 0010501 318.8263  41.2158 14.84115597129451
MISRSAT-2               
1 58497U 23187B   26116.51584633  .00001294  00000+0  16525-3 0  9992
2 58497  97.9266 198.8526 0009871 320.6801  39.3695 14.83116450129389
XINGCHI-1 02B           
1 58498U 23187C   26116.49430723  .00001628  00000+0  19413-3 0  9990
2 58498  97.9291 200.7635 0009493 314.9259  45.1184 14.85659141129508
DOORY-SAT               
1 58500U 23188A   26116.55625060  .00001138  00000+0  17353-3 0  9999
2 58500  46.9804 187.5696 0007957 158.5515 201.5714 14.80498036129343
2023-189A               
1 58502U 23189A   26116.55308374  .00005240  00000+0  16721-3 0  9994
2 58502  97.4410 134.4778 0013046  85.3857 274.8875 15.32865993133303
2023-189B               
1 58503U 23189B   26116.51219163  .00221853  00000+0  91576-3 0  9999
2 58503  97.3996 152.6635 0001313  89.4023 270.7398 15.85318999134561
CHUANGXIN 19 (CX-19)    
1 58505U 23190A   26116.56244417  .00000072  00000+0  10525-3 0  9991
2 58505  86.5066 350.4475 0001406  89.8024 270.3280 13.39548159117780
STARLINK-31026          
1 58508U 23191A   26116.25476075 -.00001017  00000+0 -27431-4 0  9995
2 58508  42.9962 201.8015 0000777 135.7166 224.3748 15.27581606132666
STARLINK-31020          
1 58509U 23191B   26116.50474933  .00001836  00000+0  76216-4 0  9997
2 58509  43.0016 200.2401 0000644 183.2921 176.7926 15.27575293132709
STARLINK-30989          
1 58510U 23191C   26116.52243223  .00002028  00000+0  83215-4 0  9998
2 58510  43.0069 193.5656 0000907 275.5138  84.5610 15.27570102132814
STARLINK-30968          
1 58511U 23191D   26116.26474411 -.00000123  00000+0  50443-5 0  9998
2 58511  43.0027 195.0702 0000509 305.9963  54.0842 15.27578653132740
STARLINK-30982          
1 58512U 23191E   26116.26860128  .00000051  00000+0  11351-4 0  9996
2 58512  43.0034 195.0948 0000588 274.7557  85.3228 15.27577652132743
STARLINK-30998          
1 58513U 23191F   26116.27116704  .00002421  00000+0  97470-4 0  9991
2 58513  43.0045 195.1224 0001611 269.1554  90.9113 15.27587965132773
STARLINK-30983          
1 58514U 23191G   26116.50445160 -.00002065  00000+0 -65537-4 0  9994
2 58514  43.0014 193.4277 0000848 281.6820  78.3936 15.27579467132439
STARLINK-31017          
1 58515U 23191H   26116.25531807  .00001412  00000+0  60817-4 0  9990
2 58515  43.0008 322.5373 0000610 307.9629  52.1167 15.27580391135450
STARLINK-31028          
1 58516U 23191J   26116.47617734 -.00000067  00000+0  70659-5 0  9991
2 58516  42.9960 193.2037 0001006 212.1395 147.9396 15.27572761132785
STARLINK-31011          
1 58517U 23191K   26116.27617083 -.00000055  00000+0  75181-5 0  9999
2 58517  43.0024 194.2946 0001078 247.0187 113.0551 15.27575125132755
STARLINK-31021          
1 58518U 23191L   26116.51857373  .00000833  00000+0  39797-4 0  9990
2 58518  43.0028 193.5165 0001563 290.1352  69.9331 15.27575853132783
STARLINK-31010          
1 58519U 23191M   26115.53390579  .00003856  00000+0  14945-3 0  9997
2 58519  43.0026 198.9906 0001364 288.4456  71.6247 15.27609585132638
STARLINK-31003          
1 58520U 23191N   26116.27488544  .00000755  00000+0  36944-4 0  9990
2 58520  43.0029 194.2828 0000877 239.9272 120.1492 15.27572736132752
STARLINK-31015          
1 58521U 23191P   26116.47489612  .00010684  00000+0  39733-3 0  9990
2 58521  43.0003 193.2065 0001354 244.8615 115.2096 15.27569090132758
STARLINK-30932          
1 58523U 23191R   26115.56718545 -.00006674  00000+0 -23291-3 0  9999
2 58523  43.0010 198.4322 0001163 287.0738  72.9986 15.27623440132593
STARLINK-30992          
1 58524U 23191S   26116.48647644 -.00001213  00000+0 -34585-4 0  9996
2 58524  43.0001 193.2917 0000716 250.9689 109.1085 15.27566044132784
STARLINK-30948          
1 58525U 23191T   26116.48902994  .00000122  00000+0  13967-4 0  9996
2 58525  42.9988 193.3112 0001216 271.5951  88.4761 15.27576440132783
STARLINK-31013          
1 58526U 23191U   26116.23429019  .00019307  00000+0  12475-2 0  9998
2 58526  42.9988 205.0579 0004949 355.3286   4.7511 15.07895133132628
STARLINK-31001          
1 58527U 23191V   26116.50828580  .00002073  00000+0  84809-4 0  9999
2 58527  42.9943 193.3615 0000342 215.1554 144.9275 15.27576850132789
STARLINK-31004          
1 58528U 23191W   26116.49288086 -.00000723  00000+0 -16756-4 0  9997
2 58528  42.9971 193.3349 0001148 260.8383  99.2339 15.27574771132780
